[{"OBJECT_NAME":"STARLINK-36250","OBJECT_ID":"2026-068F","EPOCH":"2026-04-26T15:32:14.335296","MEAN_MOTION":15.81451793,"ECCENTRICITY":0.0023301,"INCLINATION":53.1559,"RA_OF_ASC_NODE":268.9378,"ARG_OF_PERICENTER":246.6824,"MEAN_ANOMALY":113.1747,"EPHEMERIS_TYPE":0,"CLASSIFICATION_TYPE":"U","NORAD_CAT_ID":68513,"ELEMENT_SET_NO":999,"REV_AT_EPOCH":425,"BSTAR":0.0017457,"MEAN_MOTION_DOT":0.00375343,"MEAN_MOTION_DDOT":0},{"OBJECT_NAME":"STARLINK-37251","OBJECT_ID":"2026-068G","EPOCH":"2026-04-27T20:00:03.000384","MEAN_MOTION":15.60431835,"ECCENTRICITY":0.0001006,"INCLINATION":53.1599,"RA_OF_ASC_NODE":263.2685,"ARG_OF_PERICENTER":60.3097,"MEAN_ANOMALY":77.9129,"EPHEMERIS_TYPE":0,"CLASSIFICATION_TYPE":"U","NORAD_CAT_ID":68514,"ELEMENT_SET_NO":999,"REV_AT_EPOCH":571,"BSTAR":-0.032738,"MEAN_MOTION_DOT":-0.0239922,"MEAN_MOTION_DDOT":0},{"OBJECT_NAME":"STARLINK-36293","OBJECT_ID":"2026-068H","EPOCH":"2026-04-27T12:52:25.218336","MEAN_MOTION":15.7206456,"ECCENTRICITY":0.0001659,"INCLINATION":53.1596,"RA_OF_ASC_NODE":264.5251,"ARG_OF_PERICENTER":215.2271,"MEAN_ANOMALY":144.8639,"EPHEMERIS_TYPE":0,"CLASSIFICATION_TYPE":"U","NORAD_CAT_ID":68515,"ELEMENT_SET_NO":999,"REV_AT_EPOCH":439,"BSTAR":-0.0085079,"MEAN_MOTION_DOT":-0.01026534,"MEAN_MOTION_DDOT":0},{"OBJECT_NAME":"STARLINK-36290","OBJECT_ID":"2026-068J","EPOCH":"2026-04-27T14:15:03.352320","MEAN_MOTION":15.80054863,"ECCENTRICITY":0.0001034,"INCLINATION":53.1564,"RA_OF_ASC_NODE":264.1701,"ARG_OF_PERICENTER":148.9068,"MEAN_ANOMALY":211.2016,"EPHEMERIS_TYPE":0,"CLASSIFICATION_TYPE":"U","NORAD_CAT_ID":68516,"ELEMENT_SET_NO":999,"REV_AT_EPOCH":440,"BSTAR":-0.0045296,"MEAN_MOTION_DOT":-0.00787107,"MEAN_MOTION_DDOT":0},{"OBJECT_NAME":"STARLINK-36298","OBJECT_ID":"2026-068K","EPOCH":"2026-04-27T20:00:03.000384","MEAN_MOTION":15.56239982,"ECCENTRICITY":8.34e-5,"INCLINATION":53.1598,"RA_OF_ASC_NODE":263.3799,"ARG_OF_PERICENTER":66.3027,"MEAN_ANOMALY":17.1381,"EPHEMERIS_TYPE":0,"CLASSIFICATION_TYPE":"U","NORAD_CAT_ID":68517,"ELEMENT_SET_NO":999,"REV_AT_EPOCH":566,"BSTAR":-0.036577,"MEAN_MOTION_DOT":-0.0229837,"MEAN_MOTION_DDOT":0},{"OBJECT_NAME":"STARLINK-36857","OBJECT_ID":"2026-068L","EPOCH":"2026-04-26T10:52:31.060128","MEAN_MOTION":15.79977456,"ECCENTRICITY":0.000686,"INCLINATION":53.1552,"RA_OF_ASC_NODE":269.855,"ARG_OF_PERICENTER":254.8049,"MEAN_ANOMALY":105.2215,"EPHEMERIS_TYPE":0,"CLASSIFICATION_TYPE":"U","NORAD_CAT_ID":68518,"ELEMENT_SET_NO":999,"REV_AT_EPOCH":422,"BSTAR":-0.019026,"MEAN_MOTION_DOT":-0.03077019,"MEAN_MOTION_DDOT":0},{"OBJECT_NAME":"STARLINK-36326","OBJECT_ID":"2026-068M","EPOCH":"2026-04-27T12:52:07.954752","MEAN_MOTION":15.70398439,"ECCENTRICITY":7.35e-5,"INCLINATION":53.1594,"RA_OF_ASC_NODE":264.5233,"ARG_OF_PERICENTER":47.2923,"MEAN_ANOMALY":312.8157,"EPHEMERIS_TYPE":0,"CLASSIFICATION_TYPE":"U","NORAD_CAT_ID":68519,"ELEMENT_SET_NO":999,"REV_AT_EPOCH":439,"BSTAR":-0.0099109,"MEAN_MOTION_DOT":-0.01104572,"MEAN_MOTION_DDOT":0},{"OBJECT_NAME":"STARLINK-37126","OBJECT_ID":"2026-068N","EPOCH":"2026-04-23T16:06:20.793600","MEAN_MOTION":15.81008306,"ECCENTRICITY":8.742e-5,"INCLINATION":53.1564,"RA_OF_ASC_NODE":283.7948,"ARG_OF_PERICENTER":108.1875,"MEAN_ANOMALY":251.9243,"EPHEMERIS_TYPE":0,"CLASSIFICATION_TYPE":"U","NORAD_CAT_ID":68520,"ELEMENT_SET_NO":999,"REV_AT_EPOCH":378,"BSTAR":0.0014409388,"MEAN_MOTION_DOT":0.00295485,"MEAN_MOTION_DDOT":0},{"OBJECT_NAME":"STARLINK-36347","OBJECT_ID":"2026-068P","EPOCH":"2026-04-25T16:38:28.866624","MEAN_MOTION":15.80248312,"ECCENTRICITY":0.0004232,"INCLINATION":53.1571,"RA_OF_ASC_NODE":273.6518,"ARG_OF_PERICENTER":6.196,"MEAN_ANOMALY":353.9114,"EPHEMERIS_TYPE":0,"CLASSIFICATION_TYPE":"U","NORAD_CAT_ID":68521,"ELEMENT_SET_NO":999,"REV_AT_EPOCH":410,"BSTAR":0.0016012,"MEAN_MOTION_DOT":0.00318078,"MEAN_MOTION_DDOT":0},{"OBJECT_NAME":"STARLINK-36322","OBJECT_ID":"2026-068Q","EPOCH":"2026-04-27T20:00:03.000384","MEAN_MOTION":15.75239341,"ECCENTRICITY":7.58e-5,"INCLINATION":53.1583,"RA_OF_ASC_NODE":262.9398,"ARG_OF_PERICENTER":51.9909,"MEAN_ANOMALY":247.377,"EPHEMERIS_TYPE":0,"CLASSIFICATION_TYPE":"U","NORAD_CAT_ID":68522,"ELEMENT_SET_NO":999,"REV_AT_EPOCH":566,"BSTAR":-0.017181,"MEAN_MOTION_DOT":-0.02283676,"MEAN_MOTION_DDOT":0},{"OBJECT_NAME":"STARLINK-37208","OBJECT_ID":"2026-068R","EPOCH":"2026-04-27T15:42:46.696896","MEAN_MOTION":15.74372522,"ECCENTRICITY":4.66e-5,"INCLINATION":53.1576,"RA_OF_ASC_NODE":263.839,"ARG_OF_PERICENTER":8.4736,"MEAN_ANOMALY":351.6292,"EPHEMERIS_TYPE":0,"CLASSIFICATION_TYPE":"U","NORAD_CAT_ID":68523,"ELEMENT_SET_NO":999,"REV_AT_EPOCH":441,"BSTAR":-0.0061533,"MEAN_MOTION_DOT":-0.00824741,"MEAN_MOTION_DDOT":0},{"OBJECT_NAME":"STARLINK-36302","OBJECT_ID":"2026-068S","EPOCH":"2026-04-26T19:50:39.141024","MEAN_MOTION":15.83686704,"ECCENTRICITY":0.0011594,"INCLINATION":53.1541,"RA_OF_ASC_NODE":267.9162,"ARG_OF_PERICENTER":356.6731,"MEAN_ANOMALY":3.4214,"EPHEMERIS_TYPE":0,"CLASSIFICATION_TYPE":"U","NORAD_CAT_ID":68524,"ELEMENT_SET_NO":999,"REV_AT_EPOCH":428,"BSTAR":0.0024885,"MEAN_MOTION_DOT":0.00601574,"MEAN_MOTION_DDOT":0},{"OBJECT_NAME":"STARLINK-36311","OBJECT_ID":"2026-068T","EPOCH":"2026-04-27T12:31:59.299104","MEAN_MOTION":15.80958578,"ECCENTRICITY":0.0001025,"INCLINATION":53.1559,"RA_OF_ASC_NODE":264.4302,"ARG_OF_PERICENTER":88.6763,"MEAN_ANOMALY":271.4377,"EPHEMERIS_TYPE":0,"CLASSIFICATION_TYPE":"U","NORAD_CAT_ID":68525,"ELEMENT_SET_NO":999,"REV_AT_EPOCH":439,"BSTAR":0.0013689,"MEAN_MOTION_DOT":0.00279498,"MEAN_MOTION_DDOT":0},{"OBJECT_NAME":"STARLINK-37178","OBJECT_ID":"2026-068U","EPOCH":"2026-04-27T20:00:03.000384","MEAN_MOTION":15.61551926,"ECCENTRICITY":0.000121,"INCLINATION":53.1602,"RA_OF_ASC_NODE":263.1463,"ARG_OF_PERICENTER":74.4822,"MEAN_ANOMALY":123.299,"EPHEMERIS_TYPE":0,"CLASSIFICATION_TYPE":"U","NORAD_CAT_ID":68526,"ELEMENT_SET_NO":999,"REV_AT_EPOCH":571,"BSTAR":-0.031384,"MEAN_MOTION_DOT":-0.02402329,"MEAN_MOTION_DDOT":0},{"OBJECT_NAME":"STARLINK-37248","OBJECT_ID":"2026-068V","EPOCH":"2026-04-26T16:47:13.919424","MEAN_MOTION":15.81314797,"ECCENTRICITY":0.0012538,"INCLINATION":53.1555,"RA_OF_ASC_NODE":268.5452,"ARG_OF_PERICENTER":297.6246,"MEAN_ANOMALY":62.3503,"EPHEMERIS_TYPE":0,"CLASSIFICATION_TYPE":"U","NORAD_CAT_ID":68527,"ELEMENT_SET_NO":999,"REV_AT_EPOCH":426,"BSTAR":-0.021229,"MEAN_MOTION_DOT":-0.03569765,"MEAN_MOTION_DDOT":0},{"OBJECT_NAME":"STARLINK-37241","OBJECT_ID":"2026-068W","EPOCH":"2026-04-27T14:05:44.843712","MEAN_MOTION":15.74566694,"ECCENTRICITY":6.56e-5,"INCLINATION":53.1587,"RA_OF_ASC_NODE":264.1262,"ARG_OF_PERICENTER":30.5716,"MEAN_ANOMALY":329.5342,"EPHEMERIS_TYPE":0,"CLASSIFICATION_TYPE":"U","NORAD_CAT_ID":68528,"ELEMENT_SET_NO":999,"REV_AT_EPOCH":440,"BSTAR":-0.0050746,"MEAN_MOTION_DOT":-0.00696656,"MEAN_MOTION_DDOT":0},{"OBJECT_NAME":"STARLINK-37244","OBJECT_ID":"2026-068X","EPOCH":"2026-04-27T20:00:03.000384","MEAN_MOTION":15.61281986,"ECCENTRICITY":0.0001103,"INCLINATION":53.1602,"RA_OF_ASC_NODE":263.124,"ARG_OF_PERICENTER":71.9903,"MEAN_ANOMALY":136.3697,"EPHEMERIS_TYPE":0,"CLASSIFICATION_TYPE":"U","NORAD_CAT_ID":68529,"ELEMENT_SET_NO":999,"REV_AT_EPOCH":571,"BSTAR":-0.032099,"MEAN_MOTION_DOT":-0.02427503,"MEAN_MOTION_DDOT":0}]
