STARLINK-36250          
1 68513U 26068F   26116.64738814  .00375343  00000+0  17457-2 0  9992
2 68513  53.1559 268.9378 0023301 246.6824 113.1747 15.81451793  4256
STARLINK-37251          
1 68514U 26068G   26117.83336806 -.02399220  00000+0 -32738-1 0  9992
2 68514  53.1599 263.2685 0001006  60.3097  77.9129 15.60431835  5716
STARLINK-36293          
1 68515U 26068H   26117.53640299 -.01026534  00000+0 -85079-2 0  9995
2 68515  53.1596 264.5251 0001659 215.2271 144.8639 15.72064560  4399
STARLINK-36290          
1 68516U 26068J   26117.59378880 -.00787107  00000+0 -45296-2 0  9992
2 68516  53.1564 264.1701 0001034 148.9068 211.2016 15.80054863  4408
STARLINK-36298          
1 68517U 26068K   26117.83336806 -.02298370  00000+0 -36577-1 0  9994
2 68517  53.1598 263.3799 0000834  66.3027  17.1381 15.56239982  5666
STARLINK-36857          
1 68518U 26068L   26116.45313727 -.03077019  00000+0 -19026-1 0  9995
2 68518  53.1552 269.8550 0006860 254.8049 105.2215 15.79977456  4222
STARLINK-36326          
1 68519U 26068M   26117.53620318 -.01104572  00000+0 -99109-2 0  9997
2 68519  53.1594 264.5233 0000735  47.2923 312.8157 15.70398439  4397
STARLINK-37126          
1 68520U 26068N   26113.67107400  .00295485  00000+0  14409-2 0  9993
2 68520  53.1564 283.7948 0000874 108.1875 251.9243 15.81008306  3783
STARLINK-36347          
1 68521U 26068P   26115.69338966  .00318078  00000+0  16012-2 0  9997
2 68521  53.1571 273.6518 0004232   6.1960 353.9114 15.80248312  4106
STARLINK-36322          
1 68522U 26068Q   26117.83336806 -.02283676  00000+0 -17181-1 0  9993
2 68522  53.1583 262.9398 0000758  51.9909 247.3770 15.75239341  5669
STARLINK-37208          
1 68523U 26068R   26117.65470714 -.00824741  00000+0 -61533-2 0  9994
2 68523  53.1576 263.8390 0000466   8.4736 351.6292 15.74372522  4413
STARLINK-36302          
1 68524U 26068S   26116.82684191  .00601574  00000+0  24885-2 0  9993
2 68524  53.1541 267.9162 0011594 356.6731   3.4214 15.83686704  4286
STARLINK-36311          
1 68525U 26068T   26117.52221411  .00279498  00000+0  13689-2 0  9990
2 68525  53.1559 264.4302 0001025  88.6763 271.4377 15.80958578  4396
STARLINK-37178          
1 68526U 26068U   26117.83336806 -.02402329  00000+0 -31384-1 0  9996
2 68526  53.1602 263.1463 0001210  74.4822 123.2990 15.61551926  5712
STARLINK-37248          
1 68527U 26068V   26116.69946666 -.03569765  00000+0 -21229-1 0  9997
2 68527  53.1555 268.5452 0012538 297.6246  62.3503 15.81314797  4268
STARLINK-37241          
1 68528U 26068W   26117.58732458 -.00696656  00000+0 -50746-2 0  9993
2 68528  53.1587 264.1262 0000656  30.5716 329.5342 15.74566694  4401
STARLINK-37244          
1 68529U 26068X   26117.83336806 -.02427503  00000+0 -32099-1 0  9994
2 68529  53.1602 263.1240 0001103  71.9903 136.3697 15.61281986  5716
